ONEWEB-0525             
1 54143U 22138AG  24093.75963819  .00000144  00000+0  32707-3 0  9999
2 54143  87.9094 105.2861 0001629  83.7879 276.3440 13.19723771 70597
ONEWEB-0526             
1 54144U 22138AH  24093.79280524 -.00000002  00000+0 -37695-4 0  9996
2 54144  87.9093 105.2760 0001784  91.6419 268.4918 13.19723006 70576
ONEWEB-0529             
1 54145U 22138AJ  24093.79597049  .00000072  00000+0  14805-3 0  9992
2 54145  87.9101 105.2847 0001563  85.9411 274.1900 13.19724020 70590
ONEWEB-0531             
1 54146U 22138AK  24093.86206312  .00000010  00000+0 -78114-5 0  9999
2 54146  87.9151  74.6818 0002622 109.3737 250.7680 13.20770150 73003
ONEWEB-0535             
1 54147U 22138AL  24093.75332167  .00000098  00000+0  21125-3 0  9999
2 54147  87.9092 105.2824 0002245  94.4930 265.6459 13.19723373 70601
ONEWEB-0536             
1 54148U 22138AM  24093.69792411 -.00000001  00000+0 -34535-4 0  9991
2 54148  87.9150  74.7644 0002934  97.5955 262.5512 13.20769824 72974
GSLV R/B                
1 54149U 22138AN  24093.85130409  .00003193  00000+0  32487-3 0  9999
2 54149  87.3830  42.1701 0023849 179.2961 180.8305 14.90242953 78560
ONEWEB-0527             
1 54642U 22166A   24093.83727355  .00000017  00000+0  86660-5 0  9994
2 54642  87.9287  44.2825 0001857  84.7695 275.3651 13.21823865 65143
